NORAD_CAT_ID,OBJECT_NAME,OBJECT_TYPE,EPOCH,MEAN_MOTION,ECCENTRICITY,INCLINATION,RA_OF_ASC_NODE,ARG_OF_PERICENTER,MEAN_ANOMALY,BSTAR,MEAN_MOTION_DOT,MEAN_MOTION_DDOT,TLE_LINE0,TLE_LINE1,TLE_LINE2,SEMIMAJOR_AXIS,PERIOD,APOGEE,PERIGEE,DECAYED
49734.0,STARLINK-3238,PAYLOAD,2022-07-02 01:45:36,15.08817881,0.0002979,53.2198,74.3219,72.4778,287.654,0.00039721,6.035e-05,0.0,0 STARLINK-3238,1 49734U 21115L   22183.07334409  .00006035  00000-0  39721-3 0  9992,2 49734  53.2198  74.3219 0002979  72.4778 287.6540 15.08817881 33358,6917.948,95.439,541.874,537.752,0.0
49734.0,STARLINK-3238,PAYLOAD,2022-07-02 20:50:14,15.08842681,0.0002826,53.22,70.7535,70.1641,289.9655,8.123100000000001e-05,1.005e-05,0.0,0 STARLINK-3238,1 49734U 21115L   22183.86821880  .00001005  00000-0  81231-4 0  9999,2 49734  53.2200  70.7535 0002826  70.1641 289.9655 15.08842681 33479,6917.871999999999,95.437,541.692,537.7819999999998,0.0
49734.0,STARLINK-3238,PAYLOAD,2022-07-03 09:33:19,15.08843212,0.0002799,53.22,68.3747,71.0623,289.0672,5.856e-05,6.44e-06,0.0,0 STARLINK-3238,1 49734U 21115L   22184.39813840  .00000644  00000-0  58560-4 0  9992,2 49734  53.2200  68.3747 0002799  71.0623 289.0672 15.08843212 32443,6917.871,95.437,541.672,537.799,0.0
49734.0,STARLINK-3238,PAYLOAD,2022-07-03 22:16:23,15.08850033,0.0002767,53.2198,65.9957,71.9926,288.1367,8.3426e-05,1.04e-05,0.0,0 STARLINK-3238,1 49734U 21115L   22184.92805080  .00001040  00000-0  83426-4 0  9998,2 49734  53.2198  65.9957 0002767  71.9926 288.1367 15.08850033 32524,6917.85,95.437,541.629,537.8009999999998,0.0
49734.0,STARLINK-3238,PAYLOAD,2022-07-04 01:27:10,15.08847412,0.0002705,53.2193,65.4013,70.8598,289.2686,-8.117899999999999e-06,-4.18e-06,0.0,0 STARLINK-3238,1 49734U 21115L   22185.06053434 -.00000418  00000-0 -81179-5 0  9996,2 49734  53.2193  65.4013 0002705  70.8598 289.2686 15.08847412 33650,6917.858,95.437,541.594,537.851,0.0
49734.0,STARLINK-3238,PAYLOAD,2022-07-04 09:24:07,15.08831552,0.0002588,53.2191,63.9148,71.5835,288.5438,-0.00011811,-2.167e-05,0.0,0 STARLINK-3238,1 49734U 21115L   22185.39174841 -.00002167  00000-0 -11811-3 0  9995,2 49734  53.2191  63.9148 0002588  71.5835 288.5438 15.08831552 33702,6917.906,95.438,541.562,537.981,0.0
49734.0,STARLINK-3238,PAYLOAD,2022-07-04 22:07:12,15.08827214,0.0002574,53.2188,61.5363,71.391,288.7361,-9.4486e-05,-1.791e-05,0.0,0 STARLINK-3238,1 49734U 21115L   22185.92167302 -.00001791  00000-0 -94486-4 0  9990,2 49734  53.2188  61.5363 0002574  71.3910 288.7361 15.08827214 32670,6917.919,95.438,541.565,538.004,0.0
49734.0,STARLINK-3238,PAYLOAD,2022-07-05 09:14:54,15.08834054,0.0002604,53.219,59.4548,71.9548,288.1728,-4.347e-05,-9.8e-06,0.0,0 STARLINK-3238,1 49734U 21115L   22186.38534977 -.00000980  00000-0 -43470-4 0  9993,2 49734  53.2190  59.4548 0002604  71.9548 288.1728 15.08834054 32740,6917.899,95.438,541.565,537.962,0.0
49734.0,STARLINK-3238,PAYLOAD,2022-07-05 20:22:36,15.08837478,0.0002599,53.2191,57.3732,72.4141,287.7135,-4.1929e-05,-9.56e-06,0.0,0 STARLINK-3238,1 49734U 21115L   22186.84902893 -.00000956  00000-0 -41929-4 0  9990,2 49734  53.2191  57.3732 0002599  72.4141 287.7135 15.08837478 32819,6917.888000000001,95.438,541.5509999999998,537.955,0.0
49734.0,STARLINK-3238,PAYLOAD,2022-07-06 01:08:45,15.08831403,0.0002676,53.2197,56.4804,74.6453,285.4835,7.252699999999999e-05,8.66e-06,0.0,0 STARLINK-3238,1 49734U 21115L   22187.04774930  .00000866  00000-0  72527-4 0  9998,2 49734  53.2197  56.4804 0002676  74.6453 285.4835 15.08831403 32848,6917.906999999997,95.438,541.623,537.92,0.0
49734.0,STARLINK-3238,PAYLOAD,2022-07-06 21:48:46,15.08834399,0.0002619,53.2198,52.6148,76.7283,283.4002,0.00014352,1.996e-05,0.0,0 STARLINK-3238,1 49734U 21115L   22187.90886890  .00001996  00000-0  14352-3 0  9998,2 49734  53.2198  52.6148 0002619  76.7283 283.4002 15.08834399 34088,6917.898,95.438,541.5740000000002,537.951,0.0
49734.0,STARLINK-3238,PAYLOAD,2022-07-07 00:59:32,15.08830799,0.0002546,53.2194,52.0216,74.7333,285.394,0.00010412,1.369e-05,0.0,0 STARLINK-3238,1 49734U 21115L   22188.04135326  .00001369  00000-0  10412-3 0  9992,2 49734  53.2194  52.0216 0002546  74.7333 285.3940 15.08830799 32997,6917.909000000002,95.438,541.535,538.012,0.0
49734.0,STARLINK-3238,PAYLOAD,2022-07-07 21:39:33,15.08838638,0.0002582,53.2197,48.1552,77.0448,283.0833,6.3582e-05,7.24e-06,0.0,0 STARLINK-3238,1 49734U 21115L   22188.90247359  .00000724  00000-0  63582-4 0  9998,2 49734  53.2197  48.1552 0002582  77.0448 283.0833 15.08838638 33124,6917.885,95.438,541.536,537.9630000000002,0.0
49734.0,STARLINK-3238,PAYLOAD,2022-07-08 00:50:19,15.08842014,0.0002617,53.22,47.5604,77.388,282.7405,7.408e-05,8.91e-06,0.0,0 STARLINK-3238,1 49734U 21115L   22189.03495079  .00000891  00000-0  74080-4 0  9997,2 49734  53.2200  47.5604 0002617  77.3880 282.7405 15.08842014 34251,6917.874,95.437,541.55,537.929,0.0
49734.0,STARLINK-3238,PAYLOAD,2022-07-08 07:11:51,15.0885043,0.0002619,53.2201,46.3711,78.4537,281.6749,0.00010496,1.383e-05,0.0,0 STARLINK-3238,1 49734U 21115L   22189.29990374  .00001383  00000-0  10496-3 0  9990,2 49734  53.2201  46.3711 0002619  78.4537 281.6749 15.08850430 34295,6917.849,95.437,541.525,537.9019999999998,0.0
49734.0,STARLINK-3238,PAYLOAD,2022-07-08 13:33:23,15.08856407,0.0002558,53.2201,45.1811,78.4593,281.6686,0.00014437,2.011e-05,0.0,0 STARLINK-3238,1 49734U 21115L   22189.56485687  .00002011  00000-0  14437-3 0  9994,2 49734  53.2201  45.1811 0002558  78.4593 281.6686 15.08856407 33229,6917.83,95.437,541.465,537.9259999999998,0.0
49734.0,STARLINK-3238,PAYLOAD,2022-07-08 19:54:56,15.08833425,0.0002833,53.2199,43.992,80.0761,280.0551,0.00058167,8.98e-05,0.0,0 STARLINK-3238,1 49734U 21115L   22189.82981786  .00008980  00000-0  58167-3 0  9993,2 49734  53.2199  43.9920 0002833  80.0761 280.0551 15.08833425 33267,6917.9,95.438,541.725,537.806,0.0
49734.0,STARLINK-3238,PAYLOAD,2022-07-08 23:05:42,15.08859462,0.000257,53.2205,43.3975,79.8043,280.3239,0.00013706,1.895e-05,0.0,0 STARLINK-3238,1 49734U 21115L   22189.96229248  .00001895  00000-0  13706-3 0  9994,2 49734  53.2205  43.3975 0002570  79.8043 280.3239 15.08859462 34396,6917.821,95.436,541.464,537.908,0.0
49734.0,STARLINK-3238,PAYLOAD,2022-07-09 13:24:10,15.08847085,0.0002521,53.221,40.7229,76.4696,283.6577,0.00013035,1.787e-05,0.0,0 STARLINK-3238,1 49734U 21115L   22190.55845692  .00001787  00000-0  13035-3 0  9993,2 49734  53.2210  40.7229 0002521  76.4696 283.6577 15.08847085 34487,6917.859,95.437,541.4680000000002,537.98,0.0
49734.0,STARLINK-3238,PAYLOAD,2022-07-09 14:59:34,15.08839498,0.0002208,53.2203,40.4234,80.0463,280.0779,-1.6242e-05,-5.47e-06,0.0,0 STARLINK-3238,1 49734U 21115L   22190.62470576 -.00000547  00000-0 -16242-4 0  9995,2 49734  53.2203  40.4234 0002208  80.0463 280.0779 15.08839498 34492,6917.882,95.438,541.274,538.219,0.0
49734.0,STARLINK-3238,PAYLOAD,2022-07-09 22:56:31,15.08821493,0.0002339,53.2201,38.9371,77.1199,283.0055,-0.0001501,-2.675e-05,0.0,0 STARLINK-3238,1 49734U 21115L   22190.95592398 -.00002675  00000-0 -15010-3 0  9993,2 49734  53.2201  38.9371 0002339  77.1199 283.0055 15.08821493 34544,6917.937,95.439,541.42,538.184,0.0
49734.0,STARLINK-3238,PAYLOAD,2022-07-10 13:14:59,15.08818531,0.0002116,53.2172,36.2607,76.1298,283.993,-0.00036384,-6.071e-05,0.0,0 STARLINK-3238,1 49734U 21115L   22191.55207905 -.00006071  00000-0 -36384-3 0  9998,2 49734  53.2172  36.2607 0002116  76.1298 283.9930 15.08818531 33523,6917.946,95.439,541.275,538.347,0.0
49734.0,STARLINK-3238,PAYLOAD,2022-07-10 14:50:22,15.08820735,0.0002035,53.2178,35.9643,76.7989,283.323,-0.00034063,-5.702e-05,0.0,0 STARLINK-3238,1 49734U 21115L   22191.61831838 -.00005702  00000-0 -34063-3 0  9995,2 49734  53.2178  35.9643 0002035  76.7989 283.3230 15.08820735 33535,6917.939,95.439,541.212,538.396,0.0
49734.0,STARLINK-3238,PAYLOAD,2022-07-10 22:47:18,15.08834415,0.0002243,53.22,34.4774,78.468,281.6564,-4.9234e-05,-1.072e-05,0.0,0 STARLINK-3238,1 49734U 21115L   22191.94951563 -.00001072  00000-0 -49234-4 0  9992,2 49734  53.2200  34.4774 0002243  78.4680 281.6564 15.08834415 34697,6917.897,95.438,541.314,538.211,0.0
49734.0,STARLINK-3238,PAYLOAD,2022-07-11 13:05:46,15.08834111,0.0001876,53.2192,31.8002,79.2552,280.8651,0.00030343,4.544e-05,0.0,0 STARLINK-3238,1 49734U 21115L   22192.54568025  .00004544  00000-0  30343-3 0  9991,2 49734  53.2192  31.8002 0001876  79.2552 280.8651 15.08834111 33678,6917.898,95.438,541.061,538.466,0.0
49734.0,STARLINK-3238,PAYLOAD,2022-07-11 19:27:19,15.08837431,0.000196,53.2185,30.6114,77.6288,282.4923,0.00054993,8.474e-05,0.0,0 STARLINK-3238,1 49734U 21115L   22192.81064227  .00008474  00000-0  54993-3 0  9999,2 49734  53.2185  30.6114 0001960  77.6288 282.4923 15.08837431 33716,6917.888000000001,95.438,541.109,538.3969999999998,0.0
49734.0,STARLINK-3238,PAYLOAD,2022-07-12 00:13:28,15.08847633,0.0001899,53.2189,29.7198,75.2589,284.8613,0.00067347,0.00010449,0.0,0 STARLINK-3238,1 49734U 21115L   22193.00936042  .00010449  00000-0  67347-3 0  9996,2 49734  53.2189  29.7198 0001899  75.2589 284.8613 15.08847633 34853,6917.857,95.437,541.036,538.408,0.0
49734.0,STARLINK-3238,PAYLOAD,2022-07-12 12:56:33,15.0886089,0.0002021,53.2185,27.3416,77.3628,282.759,0.00060083,9.293e-05,0.0,0 STARLINK-3238,1 49734U 21115L   22193.53927439  .00009293  00000-0  60083-3 0  9999,2 49734  53.2185  27.3416 0002021  77.3628 282.7590 15.08860890 33828,6917.816999999999,95.436,541.08,538.283,0.0
49734.0,STARLINK-3238,PAYLOAD,2022-07-12 19:18:05,15.08858059,0.000191,53.219,26.1514,78.1316,281.9891,0.00036852,5.585e-05,0.0,0 STARLINK-3238,1 49734U 21115L   22193.80423206  .00005585  00000-0  36852-3 0  9999,2 49734  53.2190  26.1514 0001910  78.1316 281.9891 15.08858059 33862,6917.825,95.436,541.011,538.369,0.0
